ORBCOMM-X               
1 21576U 91050C   25322.14004332  .00000519  00000+0  16638-3 0  9998
2 21576  98.3265  25.4703 0004805  84.7367 275.4372 14.43406900804327
ORBCOMM FM01            
1 23545U 95017A   25321.82699270  .00012884  00000+0  12563-2 0  9998
2 23545  69.9638  50.4305 0001451   7.0754 353.0422 14.92589609635414
ORBCOMM FM02            
1 23546U 95017B   25321.72573179  .00014277  00000+0  13424-2 0  9992
2 23546  69.9642  69.4531 0002251  46.6466 313.4878 14.94000473635064
ORBCOMM FM08            
1 25112U 97084A   25321.27426493  .00002875  00000+0  83119-3 0  9995
2 25112  45.0142 352.6733 0008172 294.2985  65.7013 14.46458479463530
ORBCOMM FM10            
1 25113U 97084B   25321.83149740  .00002070  00000+0  61273-3 0  9999
2 25113  45.0156 352.6556 0007013 269.9690  90.0358 14.46219154638750
ORBCOMM FM11            
1 25114U 97084C   25321.79400176  .00002284  00000+0  67549-3 0  9997
2 25114  45.0143 353.7525 0007804 270.9308  89.0649 14.45959019463703
ORBCOMM FM12            
1 25115U 97084D   25321.82344286  .00002390  00000+0  70477-3 0  9993
2 25115  45.0147 353.3462 0006891 268.6069  91.3993 14.45983882463508
ORBCOMM FM09            
1 25116U 97084E   25321.52444927  .00002285  00000+0  67755-3 0  9992
2 25116  45.0153 355.8779 0008066 259.5127 100.4816 14.45832760463665
